GLOBALSTAR M068 [-]     
1 32266U 07048D   23313.37988031 -.00000053  00000+0  28018-3 0  9999
2 32266  51.9889 287.9102 0000678 324.3912 200.3842 12.62770689743545
GLOBALSTAR M079 [+]     
1 37188U 10054A   23313.44322913 -.00000077  00000+0  14992-3 0  9999
2 37188  52.0015 122.8841 0001162  97.7043 279.5726 12.62269818602481
GLOBALSTAR M074 [+]     
1 37189U 10054B   23313.46983587 -.00000082  00000+0  12393-3 0  9991
2 37189  51.9992 122.2153 0000955 101.3993 277.3849 12.62271891603093
GLOBALSTAR M076 [+]     
1 37190U 10054C   23313.41547265 -.00000067  00000+0  20405-3 0  9993
2 37190  52.0005 122.5002 0001378 117.7609 252.9498 12.62263661602806
GLOBALSTAR M077 [+]     
1 37191U 10054D   23313.57628395 -.00000072  00000+0  17798-3 0  9992
2 37191  52.0066  78.6974 0000753 115.7605 325.2799 12.62266424603194
GLOBALSTAR M075 [+]     
1 37192U 10054E   23313.06701858 -.00000053  00000+0  28514-3 0  9990
2 37192  51.9927 166.1483 0001088  81.1736  83.9291 12.62267585601989
GLOBALSTAR M073 [+]     
1 37193U 10054F   23313.35104130 -.00000104  00000+0 -36681-5 0  9997
2 37193  52.0057  78.6486 0000838 112.4071 265.8196 12.62269224603853
GLOBALSTAR M083 [+]     
1 37739U 11033A   23313.54150503 -.00000089  00000+0  82379-4 0  9992
2 37739  51.9883  27.6011 0000533  84.1992  21.1563 12.62262707572890
GLOBALSTAR M088 [+]     
1 37740U 11033B   23313.45071230 -.00000080  00000+0  13059-3 0  9992
2 37740  51.9742 293.8647 0000742  52.8260 119.1285 12.62267423568423
GLOBALSTAR M091 [+]     
1 37741U 11033C   23313.30419017 -.00000094  00000+0  55262-4 0  9994
2 37741  52.0000 256.8181 0001001  55.0112 110.0291 12.62268251569197
GLOBALSTAR M085 [+]     
1 37742U 11033D   23313.12868521 -.00000082  00000+0  12248-3 0  9996
2 37742  51.9860 208.9100 0001123  64.6831  82.9449 12.62264943569688
GLOBALSTAR M081 [+]     
1 37743U 11033E   23313.04648453 -.00000080  00000+0  13064-3 0  9993
2 37743  51.9951 211.5855 0001230  72.4318 301.4635 12.62266517569824
GLOBALSTAR M089 [+]     
1 37744U 11033F   23313.04005318 -.00000066  00000+0  21005-3 0  9999
2 37744  51.9910 165.9432 0001018  99.1674  65.4841 12.62269425570669
GLOBALSTAR M084 [+]     
1 38040U 11080A   23313.51572757 -.00000091  00000+0  68968-4 0  9997
2 38040  52.0029  31.4713 0000630 139.4813 326.7840 12.62267414548701
GLOBALSTAR M080 [+]     
1 38041U 11080B   23313.56898333 -.00000092  00000+0  64190-4 0  9998
2 38041  52.0083  32.7101 0000829 139.3735 329.1214 12.62265912548836
GLOBALSTAR M082 [+]     
1 38042U 11080C   23313.51533984 -.00000071  00000+0  18189-3 0  9995
2 38042  52.0097 348.2582 0000615  16.7536 149.0290 12.62267766549530
GLOBALSTAR M092 [+]     
1 38043U 11080D   23313.55554986 -.00000098  00000+0  33474-4 0  9999
2 38043  52.0084  78.4756 0000749 141.2073 328.1828 12.62262742547994
GLOBALSTAR M090 [+]     
1 38044U 11080E   23313.28524846 -.00000070  00000+0  19003-3 0  9993
2 38044  51.9905 343.5211 0000453  51.8199  28.7817 12.62263235549625
GLOBALSTAR M086 [+]     
1 38045U 11080F   23313.39572215 -.00000073  00000+0  17359-3 0  9994
2 38045  51.9917 343.6917 0001297  97.4910   4.3184 12.62264068549584
GLOBALSTAR M097 [+]     
1 39072U 13005A   23313.24146625 -.00000099  00000+0  28080-4 0  9992
2 39072  52.0049 258.1122 0000963  55.9814 304.1144 12.62272472496814
GLOBALSTAR M093 [+]     
1 39073U 13005B   23313.21497640 -.00000093  00000+0  60716-4 0  9992
2 39073  51.9812 252.4338 0001231  57.0628 303.0356 12.62268574496767
GLOBALSTAR M094 [+]     
1 39074U 13005C   23312.89829228 -.00000069  00000+0  19138-3 0  9991
2 39074  51.9937 167.1952 0001200  82.0386 278.0617 12.62269632498337
GLOBALSTAR M096 [+]     
1 39075U 13005D   23312.99068359 -.00000085  00000+0  10556-3 0  9996
2 39075  52.0068 214.9703 0001193  65.3982 294.7009 12.62265927497261
GLOBALSTAR M078 [+]     
1 39076U 13005E   23313.67677305 -.00000089  00000+0  83521-4 0  9997
2 39076  51.9879 298.1866 0000979 349.3883  10.6963 12.62263032496189
GLOBALSTAR M095 [+]     
1 39077U 13005F   23313.22822319 -.00000087  00000+0  91510-4 0  9991
2 39077  51.9807 297.0415 0000977  21.7744 338.3164 12.62270533495775
GLOBALSTAR M087 [+]     
1 52888U 22064A   23313.22672639 -.00000087  00000+0  78620-4 0  9996
2 52888  51.9760 258.8491 0009404 159.8175 200.3099 13.37557421 67959
